QIANFAN-17              
1 60395U 24140S   25272.29881846  .00000070  00000+0  89009-4 0  9994
2 60395  88.9778 307.1443 0016813  65.3374 294.9526 13.50971452 58086
QIANFAN-18              
1 60396U 24140T   25272.27827362  .00000099  00000+0  13442-3 0  9994
2 60396  88.9771 306.6855 0015748  50.0962 310.1571 13.50973202 57479
QIANFAN-19              
1 61552U 24185A   25272.29285140  .00000939  00000+0  48562-3 0  9996
2 61552  88.9757  86.4741 0007196 167.2276 192.9095 14.14171735 59147
QIANFAN-20              
1 61553U 24185B   25272.25058302  .00000911  00000+0  52084-3 0  9995
2 61553  88.9754  86.7277 0004817 202.1530 157.9447 14.08722986 59001
QIANFAN-21              
1 61554U 24185C   25272.25820736  .00001314  00000+0  58350-3 0  9994
2 61554  88.9671  85.7051 0008774 240.1334 119.8986 14.22442592 59383
QIANFAN-22              
1 61555U 24185D   25272.30024228  .00000387  00000+0  32371-3 0  9997
2 61555  88.9738  87.4043 0005532 206.9998 153.0886 13.86261553 58623
QIANFAN-23              
1 61556U 24185E   25272.30244736  .00001130  00000+0  56448-3 0  9994
2 61556  88.9749  86.3173 0007556 180.8104 179.3073 14.16158389 59216
QIANFAN-24              
1 61557U 24185F   25272.25361130  .00001210  00000+0  52451-3 0  9996
2 61557  88.9730  85.8496 0009861 169.1728 190.9678 14.23646837 59423
